CTC1_L_00139016-03
1 21708U 22648RZ  26070.40832176  .00000000  00000+0  00000-0 0  9995
2 21708  75.0000 180.0000 0000000   0.0000   0.0000 14.15679949    17
CTC1_L_00139016-04
1 21709U 26874AE  26070.40832176  .00000000  00000+0  00000-0 0  9991
2 21709  75.0000 180.0000 0000000   0.0000  90.0000 14.15679949    17
CTC1_L_00139017-01
1 21710U 22792YV  26070.40832176  .00000000  00000+0  00000-0 0  9998
2 21710  75.0000 192.0000 0000000   0.0000 192.0000 14.15679949    15
CTC1_L_00139017-02
1 21711U 25840HV  26070.40832176  .00000000  00000+0  00000-0 0  9996
2 21711  75.0000 192.0000 0000000   0.0000 282.0000 14.15679949    16
CTC1_L_00139017-03
1 21712U 25464EY  26070.40832176  .00000000  00000+0  00000-0 0  9999
2 21712  75.0000 192.0000 0000000   0.0000  12.0000 14.15679949    18
CTC1_L_00139017-04
1 21713U 25262DL  26070.40832176  .00000000  00000+0  00000-0 0  9996
2 21713  75.0000 192.0000 0000000   0.0000 102.0000 14.15679949    19
CTC1_L_00139018-01
1 21714U 23440HZ  26070.40832176  .00000000  00000+0  00000-0 0  9993
2 21714  75.0000 204.0000 0000000   0.0000 204.0000 14.15679949    17
CTC1_L_00139018-02
1 21715U 25316EC  26070.40832176  .00000000  00000+0  00000-0 0  9998
2 21715  75.0000 204.0000 0000000   0.0000 294.0000 14.15679949    17
CTC1_L_00139018-03
1 21716U 24424GA  26070.40832176  .00000000  00000+0  00000-0 0  9998
2 21716  75.0000 204.0000 0000000   0.0000  24.0000 14.15679949    19
CTC1_L_00139018-04
1 21717U 22054JV  26070.40832176  .00000000  00000+0  00000-0 0  9996
2 21717  75.0000 204.0000 0000000   0.0000 114.0000 14.15679949    10
CTC1_L_00139019-01
1 21718U 25906QL  26070.40832176  .00000000  00000+0  00000-0 0  9996
2 21718  75.0000 216.0000 0000000   0.0000 216.0000 14.15679949    17
CTC1_L_00139019-02
1 21719U 23168DQ  26070.40832176  .00000000  00000+0  00000-0 0  9995
2 21719  75.0000 216.0000 0000000   0.0000 306.0000 14.15679949    18
CTC1_L_00139019-03
1 21720U 26727RK  26070.40832176  .00000000  00000+0  00000-0 0  9991
2 21720  75.0000 216.0000 0000000   0.0000  36.0000 14.15679949    10
CTC1_L_00139019-04
1 21721U 26233KV  26070.40832176  .00000000  00000+0  00000-0 0  9994
2 21721  75.0000 216.0000 0000000   0.0000 126.0000 14.15679949    11
CTC1_L_00139020-01
1 21722U 26842KI  26070.40832176  .00000000  00000+0  00000-0 0  9991
2 21722  75.0000 228.0000 0000000   0.0000 228.0000 14.15679949    18
CTC1_L_00139020-02
1 21723U 24505I   26070.40832176  .00000000  00000+0  00000-0 0  9996
2 21723  75.0000 228.0000 0000000   0.0000 318.0000 14.15679949    19
CTC1_L_00139020-03
1 21724U 23984EW  26070.40832176  .00000000  00000+0  00000-0 0  9997
2 21724  75.0000 228.0000 0000000   0.0000  48.0000 14.15679949    10
CTC1_L_00139020-04
1 21725U 26451WB  26070.40832176  .00000000  00000+0  00000-0 0  9990
2 21725  75.0000 228.0000 0000000   0.0000 138.0000 14.15679949    11
CTC1_L_00139021-01
1 21726U 23803DA  26070.40832176  .00000000  00000+0  00000-0 0  9999
2 21726  75.0000 240.0000 0000000   0.0000 240.0000 14.15679949    10
CTC1_L_00139021-02
1 21727U 23210OD  26070.40832176  .00000000  00000+0  00000-0 0  9992
2 21727  75.0000 240.0000 0000000   0.0000 330.0000 14.15679949    11
CTC1_L_00139021-03
1 21728U 23009PI  26070.40832176  .00000000  00000+0  00000-0 0  9999
2 21728  75.0000 240.0000 0000000   0.0000  60.0000 14.15679949    12
CTC1_L_00139021-04
1 21729U 22475OZ  26070.40832176  .00000000  00000+0  00000-0 0  9996
2 21729  75.0000 240.0000 0000000   0.0000 150.0000 14.15679949    13
CTC1_L_00139022-01
1 21730U 22007BV  26070.40832176  .00000000  00000+0  00000-0 0  9999
2 21730  75.0000 252.0000 0000000   0.0000 252.0000 14.15679949    11
CTC1_L_00139022-02
1 21731U 25101CU  26070.40832176  .00000000  00000+0  00000-0 0  9998
2 21731  75.0000 252.0000 0000000   0.0000 342.0000 14.15679949    12
CTC1_L_00139022-03
1 21732U 24733ML  26070.40832176  .00000000  00000+0  00000-0 0  9999
2 21732  75.0000 252.0000 0000000   0.0000  72.0000 14.15679949    13
CTC1_L_00139022-04
1 21733U 22177SJ  26070.40832176  .00000000  00000+0  00000-0 0  9990
2 21733  75.0000 252.0000 0000000   0.0000 162.0000 14.15679949    14
CTC1_L_00139023-01
1 21734U 23296VF  26070.40832176  .00000000  00000+0  00000-0 0  9994
2 21734  75.0000 264.0000 0000000   0.0000 264.0000 14.15679949    11
CTC1_L_00139023-02
1 21735U 25890CG  26070.40832176  .00000000  00000+0  00000-0 0  9997
2 21735  75.0000 264.0000 0000000   0.0000 354.0000 14.15679949    12
CTC1_L_00139023-03
1 21736U 25978QB  26070.40832176  .00000000  00000+0  00000-0 0  9995
2 21736  75.0000 264.0000 0000000   0.0000  84.0000 14.15679949    13
CTC1_L_00139023-04
1 21737U 23582LA  26070.40832176  .00000000  00000+0  00000-0 0  9995
2 21737  75.0000 264.0000 0000000   0.0000 174.0000 14.15679949    14
CTC1_L_00139024-01
1 21738U 25307OC  26070.40832176  .00000000  00000+0  00000-0 0  9993
2 21738  75.0000 276.0000 0000000   0.0000 276.0000 14.15679949    11
CTC1_L_00139024-02
1 21739U 22759FA  26070.40832176  .00000000  00000+0  00000-0 0  9992
2 21739  75.0000 276.0000 0000000   0.0000   6.0000 14.15679949    13
CTC1_L_00139024-03
1 21740U 24080NJ  26070.40832176  .00000000  00000+0  00000-0 0  9993
2 21740  75.0000 276.0000 0000000   0.0000  96.0000 14.15679949    14
CTC1_L_00139024-04
1 21741U 23943ZO  26070.40832176  .00000000  00000+0  00000-0 0  9991
2 21741  75.0000 276.0000 0000000   0.0000 186.0000 14.15679949    15
CTC1_L_00139025-01
1 21742U 24362YM  26070.40832176  .00000000  00000+0  00000-0 0  9998
2 21742  75.0000 288.0000 0000000   0.0000 288.0000 14.15679949    12
CTC1_L_00139025-02
1 21743U 24113ME  26070.40832176  .00000000  00000+0  00000-0 0  9993
2 21743  75.0000 288.0000 0000000   0.0000  18.0000 14.15679949    14
CTC1_L_00139025-03
1 21744U 25594QL  26070.40832176  .00000000  00000+0  00000-0 0  9998
2 21744  75.0000 288.0000 0000000   0.0000 108.0000 14.15679949    15
CTC1_L_00139025-04
1 21745U 25725IN  26070.40832176  .00000000  00000+0  00000-0 0  9995
2 21745  75.0000 288.0000 0000000   0.0000 198.0000 14.15679949    15
CTC1_L_00139026-01
1 21746U 23639MS  26070.40832176  .00000000  00000+0  00000-0 0  9998
2 21746  75.0000 300.0000 0000000   0.0000 300.0000 14.15679949    16
CTC1_L_00139026-02
1 21747U 24368RG  26070.40832176  .00000000  00000+0  00000-0 0  9999
2 21747  75.0000 300.0000 0000000   0.0000  30.0000 14.15679949    17
CTC1_L_00139026-03
1 21748U 25687EU  26070.40832176  .00000000  00000+0  00000-0 0  9995
2 21748  75.0000 300.0000 0000000   0.0000 120.0000 14.15679949    18
CTC1_L_00139026-04
1 21749U 24046TE  26070.40832176  .00000000  00000+0  00000-0 0  9994
2 21749  75.0000 300.0000 0000000   0.0000 210.0000 14.15679949    19
CTC1_L_00139027-01
1 21750U 26955UB  26070.40832176  .00000000  00000+0  00000-0 0  9997
2 21750  75.0000 312.0000 0000000   0.0000 312.0000 14.15679949    17
CTC1_L_00139027-02
1 21751U 25360KU  26070.40832176  .00000000  00000+0  00000-0 0  9997
2 21751  75.0000 312.0000 0000000   0.0000  42.0000 14.15679949    18
CTC1_L_00139027-03
1 21752U 22209ET  26070.40832176  .00000000  00000+0  00000-0 0  9997
2 21752  75.0000 312.0000 0000000   0.0000 132.0000 14.15679949    19
CTC1_L_00139027-04
1 21753U 22324CZ  26070.40832176  .00000000  00000+0  00000-0 0  9996
2 21753  75.0000 312.0000 0000000   0.0000 222.0000 14.15679949    10
CTC1_L_00139028-01
1 21754U 25057SX  26070.40832176  .00000000  00000+0  00000-0 0  9993
2 21754  75.0000 324.0000 0000000   0.0000 324.0000 14.15679949    17
CTC1_L_00139028-02
1 21755U 24426LB  26070.40832176  .00000000  00000+0  00000-0 0  9993
2 21755  75.0000 324.0000 0000000   0.0000  54.0000 14.15679949    18
CTC1_L_00139028-03
1 21756U 24162NE  26070.40832176  .00000000  00000+0  00000-0 0  9991
2 21756  75.0000 324.0000 0000000   0.0000 144.0000 14.15679949    19
CTC1_L_00139028-04
1 21757U 22402SI  26070.40832176  .00000000  00000+0  00000-0 0  9997
2 21757  75.0000 324.0000 0000000   0.0000 234.0000 14.15679949    10
CTC1_L_00139029-01
1 21758U 26787EP  26070.40832176  .00000000  00000+0  00000-0 0  9998
2 21758  75.0000 336.0000 0000000   0.0000 336.0000 14.15679949    17
CTC1_L_00139029-02
1 21759U 26810HI  26070.40832176  .00000000  00000+0  00000-0 0  9996
2 21759  75.0000 336.0000 0000000   0.0000  66.0000 14.15679949    18
CTC1_L_00139029-03
1 21760U 26254SU  26070.40832176  .00000000  00000+0  00000-0 0  9990
2 21760  75.0000 336.0000 0000000   0.0000 156.0000 14.15679949    10
CTC1_L_00139029-04
1 21761U 23078SY  26070.40832176  .00000000  00000+0  00000-0 0  9992
2 21761  75.0000 336.0000 0000000   0.0000 246.0000 14.15679949    11
CTC1_L_00139030-01
1 21762U 23198RZ  26070.40832176  .00000000  00000+0  00000-0 0  9996
2 21762  75.0000 348.0000 0000000   0.0000 348.0000 14.15679949    18
CTC1_L_00139030-02
1 21763U 23401AR  26070.40832176  .00000000  00000+0  00000-0 0  9994
2 21763  75.0000 348.0000 0000000   0.0000  78.0000 14.15679949    19
CTC1_L_00139030-03
1 21764U 23289GN  26070.40832176  .00000000  00000+0  00000-0 0  9999
2 21764  75.0000 348.0000 0000000   0.0000 168.0000 14.15679949    10
CTC1_L_00139030-04
1 21765U 25601IV  26070.40832176  .00000000  00000+0  00000-0 0  9990
2 21765  75.0000 348.0000 0000000   0.0000 258.0000 14.15679949    11
